[{"OBJECT_NAME":"ASRTU-1 (AO-123)","OBJECT_ID":"2024-199AY","EPOCH":"2026-03-09T22:36:42.151392","MEAN_MOTION":15.34070057,"ECCENTRICITY":0.0012786,"INCLINATION":97.3152,"RA_OF_ASC_NODE":298.5256,"ARG_OF_PERICENTER":309.3392,"MEAN_ANOMALY":50.6717,"EPHEMERIS_TYPE":0,"CLASSIFICATION_TYPE":"U","NORAD_CAT_ID":61781,"ELEMENT_SET_NO":999,"REV_AT_EPOCH":11870,"BSTAR":0.00032267684,"MEAN_MOTION_DOT":0.00010589,"MEAN_MOTION_DDOT":0},{"OBJECT_NAME":"STARLINK-32641","OBJECT_ID":"2024-231U","EPOCH":"2026-03-09T15:52:03.978624","MEAN_MOTION":15.30198416,"ECCENTRICITY":9.691e-5,"INCLINATION":53.1583,"RA_OF_ASC_NODE":207.0009,"ARG_OF_PERICENTER":84.516,"MEAN_ANOMALY":275.5952,"EPHEMERIS_TYPE":0,"CLASSIFICATION_TYPE":"U","NORAD_CAT_ID":62236,"ELEMENT_SET_NO":999,"REV_AT_EPOCH":7193,"BSTAR":0.00054213083,"MEAN_MOTION_DOT":0.0001573,"MEAN_MOTION_DDOT":0}]
